{
    "links": {
        "self": "http://www.neowsapp.com/rest/v1/neo/3560058?api_key=iIulBulltgU6a56xZRHN4H3l9WmuAYTsLGpBGhQ2"
    },
    "id": "3560058",
    "neo_reference_id": "3560058",
    "name": "(2011 FT2)",
    "designation": "2011 FT2",
    "nasa_jpl_url": "http://ssd.jpl.nasa.gov/sbdb.cgi?sstr=3560058",
    "absolute_magnitude_h": 23.8,
    "estimated_diameter": {
        "kilometers": {
            "estimated_diameter_min": 0.046190746,
            "estimated_diameter_max": 0.1032856481
        },
        "meters": {
            "estimated_diameter_min": 46.1907460282,
            "estimated_diameter_max": 103.2856480504
        },
        "miles": {
            "estimated_diameter_min": 0.0287015901,
            "estimated_diameter_max": 0.0641787064
        },
        "feet": {
            "estimated_diameter_min": 151.544447199,
            "estimated_diameter_max": 338.8636855496
        }
    },
    "is_potentially_hazardous_asteroid": false,
    "close_approach_data": [
        {
            "close_approach_date": "2001-03-16",
            "close_approach_date_full": "2001-Mar-16 15:14",
            "epoch_date_close_approach": 984755640000,
            "relative_velocity": {
                "kilometers_per_second": "16.7040003298",
                "kilometers_per_hour": "60134.4011872037",
                "miles_per_hour": "37365.1783376822"
            },
            "miss_distance": {
                "astronomical": "0.4238354272",
                "lunar": "164.8719811808",
                "kilometers": "63404877.139660064",
                "miles": "39397963.7467303232"
            },
            "orbiting_body": "Earth"
        },
        {
            "close_approach_date": "2011-03-29",
            "close_approach_date_full": "2011-Mar-29 16:21",
            "epoch_date_close_approach": 1301415660000,
            "relative_velocity": {
                "kilometers_per_second": "9.7028149512",
                "kilometers_per_hour": "34930.1338243961",
                "miles_per_hour": "21704.2267643866"
            },
            "miss_distance": {
                "astronomical": "0.0702886838",
                "lunar": "27.3422979982",
                "kilometers": "10515037.381583506",
                "miles": "6533741.2553081428"
            },
            "orbiting_body": "Earth"
        }
    ],
    "orbital_data": {
        "orbit_id": "10",
        "orbit_determination_date": "2017-04-06 08:54:02",
        "first_observation_date": "2011-03-25",
        "last_observation_date": "2011-04-08",
        "data_arc_in_days": 14,
        "observations_used": 57,
        "orbit_uncertainty": "8",
        "minimum_orbit_intersection": ".0629057",
        "jupiter_tisserand_invariant": "5.009",
        "epoch_osculation": "2455648.5",
        "eccentricity": ".1755417847363991",
        "semi_major_axis": "1.274682379653636",
        "inclination": "17.97457016080617",
        "ascending_node_longitude": "5.398439164669242",
        "orbital_period": "525.655727191681",
        "perihelion_distance": "1.050922359757196",
        "perihelion_argument": "201.5286806282051",
        "aphelion_distance": "1.498442399550075",
        "perihelion_time": "2455670.628137497509",
        "mean_anomaly": "344.8453482250401",
        "mean_motion": ".6848588940965263",
        "equinox": "J2000",
        "orbit_class": {
            "orbit_class_type": "AMO",
            "orbit_class_description": "Near-Earth asteroid orbits similar to that of 1221 Amor",
            "orbit_class_range": "1.017 AU < q (perihelion) < 1.3 AU"
        }
    },
    "is_sentry_object": false
}